EUTELSAT 8 WEST B       
1 40875U 15039B   25333.14838971 -.00000045  00000+0  00000+0 0  9997
2 40875   0.0689  11.6085 0004183 240.3728 221.7439  1.00271705 37654
EUTELSAT 9B             
1 41310U 16005A   25333.15176975  .00000082  00000+0  00000+0 0  9996
2 41310   0.0542  72.6672 0004604 188.9615 230.3101  1.00270403 36112
EUTELSAT 65 WEST A      
1 41382U 16014A   25333.13703631 -.00000256  00000+0  00000+0 0  9992
2 41382   0.0656  34.6218 0002526 217.0047 160.7937  1.00272967 35529
EUTELSAT 117 WEST B     
1 41589U 16038B   25332.98407817  .00000009  00000+0  00000+0 0  9991
2 41589   0.0111 146.1804 0000251 123.8988  35.3341  1.00271816 34656
EUTELSAT 172B           
1 42741U 17029B   25333.16641875  .00000015  00000+0  00000+0 0  9995
2 42741   0.0285 167.5197 0000054 277.4308 215.2812  1.00270534 31727
EUTELSAT 7C             
1 44334U 19034B   25332.22389494  .00000068  00000+0  00000+0 0  9993
2 44334   0.0770 183.8712 0003135  44.0700 287.0665  1.00269130  4821
EUTELSAT 5 WEST B       
1 44624U 19067A   25333.14899639 -.00000021  00000+0  00000+0 0  9990
2 44624   0.0634 344.7400 0003370 262.8362 229.3726  1.00271236 22433
EUTELSAT KONNECT        
1 45027U 20005B   25333.15142307  .00000070  00000+0  00000+0 0  9999
2 45027   0.0647  99.6054 0001542 190.4004 200.0115  1.00268978 22329
